[{"OBJECT_NAME":"STARLINK-5113","OBJECT_ID":"2022-125AA","EPOCH":"2026-03-09T21:45:23.095584","MEAN_MOTION":15.08837383,"ECCENTRICITY":0.0001202,"INCLINATION":53.2169,"RA_OF_ASC_NODE":213.2635,"ARG_OF_PERICENTER":77.9761,"MEAN_ANOMALY":282.1366,"EPHEMERIS_TYPE":0,"CLASSIFICATION_TYPE":"U","NORAD_CAT_ID":53988,"ELEMENT_SET_NO":999,"REV_AT_EPOCH":18948,"BSTAR":0.0002331101,"MEAN_MOTION_DOT":3.424e-5,"MEAN_MOTION_DDOT":0},{"OBJECT_NAME":"SCOUT X-4 R\/B","OBJECT_ID":"1964-076C","EPOCH":"2026-03-09T21:31:37.688736","MEAN_MOTION":12.82292935,"ECCENTRICITY":0.10503796,"INCLINATION":81.3341,"RA_OF_ASC_NODE":228.4824,"ARG_OF_PERICENTER":226.0934,"MEAN_ANOMALY":124.8691,"EPHEMERIS_TYPE":0,"CLASSIFICATION_TYPE":"U","NORAD_CAT_ID":933,"ELEMENT_SET_NO":999,"REV_AT_EPOCH":82385,"BSTAR":0.00066284647,"MEAN_MOTION_DOT":1.978e-5,"MEAN_MOTION_DDOT":0}]
